FIREFLY-1               
1 62701U 25009CW  26202.21306105  .00000753  00000+0  78263-4 0  9996
2 62701  97.7057 279.6361 0003089 197.9196 162.1915 14.92748946 82390
FIREFLY-2               
1 62704U 25009CZ  26202.25801318  .00000481  00000+0  51993-4 0  9998
2 62704  97.7013 279.4465 0005871 342.0303  18.0708 14.92743600 82405
FIREFLY-3               
1 62710U 25009DF  26202.23587309  .00000915  00000+0  93781-4 0  9997
2 62710  97.7047 279.6880 0004478  59.2514 300.9146 14.92808915 82416
