{"fetched_at":"2026-07-21T17:53:25.075Z","source":"https://celestrak.org/NORAD/elements/gp.php?NAME=FIREFLY&FORMAT=JSON","constellation":"pixxel","records":[{"OBJECT_NAME":"FIREFLY-1","OBJECT_ID":"2025-009CW","EPOCH":"2026-07-21T05:06:48.474720","CLASSIFICATION_TYPE":"U","MEAN_MOTION":14.92748946,"ECCENTRICITY":0.00030891,"INCLINATION":97.7057,"RA_OF_ASC_NODE":279.6361,"ARG_OF_PERICENTER":197.9196,"MEAN_ANOMALY":162.1915,"EPHEMERIS_TYPE":0,"NORAD_CAT_ID":62701,"ELEMENT_SET_NO":999,"REV_AT_EPOCH":8239,"BSTAR":0.000078263442,"MEAN_MOTION_DOT":0.00000753,"MEAN_MOTION_DDOT":0},{"OBJECT_NAME":"FIREFLY-2","OBJECT_ID":"2025-009CZ","EPOCH":"2026-07-21T06:11:32.338752","CLASSIFICATION_TYPE":"U","MEAN_MOTION":14.927436,"ECCENTRICITY":0.00058713,"INCLINATION":97.7013,"RA_OF_ASC_NODE":279.4465,"ARG_OF_PERICENTER":342.0303,"MEAN_ANOMALY":18.0708,"EPHEMERIS_TYPE":0,"NORAD_CAT_ID":62704,"ELEMENT_SET_NO":999,"REV_AT_EPOCH":8240,"BSTAR":0.000051993252,"MEAN_MOTION_DOT":0.00000481,"MEAN_MOTION_DDOT":0},{"OBJECT_NAME":"FIREFLY-3","OBJECT_ID":"2025-009DF","EPOCH":"2026-07-21T05:39:39.434976","CLASSIFICATION_TYPE":"U","MEAN_MOTION":14.92808915,"ECCENTRICITY":0.00044787,"INCLINATION":97.7047,"RA_OF_ASC_NODE":279.688,"ARG_OF_PERICENTER":59.2514,"MEAN_ANOMALY":300.9146,"EPHEMERIS_TYPE":0,"NORAD_CAT_ID":62710,"ELEMENT_SET_NO":999,"REV_AT_EPOCH":8241,"BSTAR":0.000093781163,"MEAN_MOTION_DOT":0.00000915,"MEAN_MOTION_DDOT":0}]}
